BRO-1                   
1 44495U 19054A   26191.27908351  .00773040  32584-3  85185-3 0  9995
2 44495  44.9831 149.3269 0008462 148.3156 211.8269 16.08797308383438
BRO-5                   
1 51061U 22002CF  26191.26337409  .00022975  00000+0  43022-3 0  9990
2 51061  97.2989 265.1553 0004862 222.5488 137.5387 15.48683886249823
BRO-6                   
1 52422U 22047AE  26191.29385491  .00033594  00000+0  55271-3 0  9996
2 52422  97.3390 282.8189 0003084 338.4320  21.6802 15.52287871234738
BRO-8                   
1 55011U 23001C   26191.29263429  .00024837  00000+0  43563-3 0  9991
2 55011  97.3195 256.8307 0005407  56.5575 303.6194 15.50532589195787
BRO-11                  
1 58264U 23174J   26191.30679453  .00002885  00000+0  10961-3 0  9990
2 58264  97.3900 267.9405 0011805 122.4513 237.7869 15.27564282148288
BRO-13                  
1 59107U 24043K   26191.29234522  .00000688  00000+0  65552-4 0  9991
2 59107  97.8517 322.3879 0007677 282.2522  77.7840 14.96642916128074
BRO-12                  
1 59108U 24043L   26191.35153410  .00000405  00000+0  40541-4 0  9993
2 59108  97.8505 322.6156 0007088 276.9604  83.0811 14.96888033128104
BRO-14                  
1 60551U 24149CM  26189.46234433  .00000498  00000+0  49245-4 0  9990
2 60551  97.6862 264.8578 0007328  36.5112 323.6608 14.96225728103171
BRO-15                  
1 60553U 24149CP  26190.44813664  .00000727  00000+0  69494-4 0  9994
2 60553  97.6798 265.4070 0008525  23.7668 336.3946 14.96220766103330
BRO-16                  
1 62654U 25009AX  26190.46824245  .00002349  00000+0  99643-4 0  9994
2 62654  97.4053 270.6796 0001584 166.1451 193.9830 15.24102662 82194
BRO-18                  
1 64550U 25135Y   26191.26122459  .00003892  00000+0  17277-3 0  9994
2 64550  97.4644 306.1156 0002305 122.3627 237.7833 15.22151441 58384
BRO-17                  
1 66672U 25276G   26190.98908799  .00001784  00000+0  90678-4 0  9999
2 66672  97.4185 263.6580 0005100 283.2606  76.8059 15.18135853 33850
BRO-20                  
1 66674U 25276J   26191.16340130  .00002249  00000+0  11292-3 0  9992
2 66674  97.4164 263.8173 0004673 286.9485  73.1237 15.18309519 33881
BRO-19                  
1 68422U 26067G   26191.30488085  .00002622  00000+0  12865-3 0  9994
2 68422  97.4483 149.4327 0002355 112.9741 247.1742 15.18969133 15457
BRO-21                  
1 69007U 26100AD  26189.69638385  .00001614  00000+0  74556-4 0  9997
2 69007  97.4020  87.2384 0007538 353.3605   6.7530 15.21599743 10071
BRO-22                  
1 69504U 26132C   26190.57006648  .00000764  00000+0  66480-4 0  9996
2 69504  97.6833 253.9635 0015951 201.2436 158.8127 14.99796310  4133
