{"fetched_at":"2026-07-10T18:08:02.826Z","source":"https://celestrak.org/NORAD/elements/gp.php?NAME=BRO&FORMAT=JSON","constellation":"unseenlabs","records":[{"OBJECT_NAME":"BRO-1","OBJECT_ID":"2019-054A","EPOCH":"2026-07-10T06:41:52.815264","CLASSIFICATION_TYPE":"U","MEAN_MOTION":16.08797308,"ECCENTRICITY":0.00084624,"INCLINATION":44.9831,"RA_OF_ASC_NODE":149.3269,"ARG_OF_PERICENTER":148.3156,"MEAN_ANOMALY":211.8269,"EPHEMERIS_TYPE":0,"NORAD_CAT_ID":44495,"ELEMENT_SET_NO":999,"REV_AT_EPOCH":38343,"BSTAR":0.00085185381,"MEAN_MOTION_DOT":0.0077304,"MEAN_MOTION_DDOT":0.00032584359},{"OBJECT_NAME":"BRO-5","OBJECT_ID":"2022-002CF","EPOCH":"2026-07-10T06:19:15.521376","CLASSIFICATION_TYPE":"U","MEAN_MOTION":15.48683886,"ECCENTRICITY":0.00048629,"INCLINATION":97.2989,"RA_OF_ASC_NODE":265.1553,"ARG_OF_PERICENTER":222.5488,"MEAN_ANOMALY":137.5387,"EPHEMERIS_TYPE":0,"NORAD_CAT_ID":51061,"ELEMENT_SET_NO":999,"REV_AT_EPOCH":24982,"BSTAR":0.00043022134,"MEAN_MOTION_DOT":0.00022975,"MEAN_MOTION_DDOT":0},{"OBJECT_NAME":"BRO-6","OBJECT_ID":"2022-047AE","EPOCH":"2026-07-10T07:03:09.064224","CLASSIFICATION_TYPE":"U","MEAN_MOTION":15.52287871,"ECCENTRICITY":0.00030842,"INCLINATION":97.339,"RA_OF_ASC_NODE":282.8189,"ARG_OF_PERICENTER":338.432,"MEAN_ANOMALY":21.6802,"EPHEMERIS_TYPE":0,"NORAD_CAT_ID":52422,"ELEMENT_SET_NO":999,"REV_AT_EPOCH":23473,"BSTAR":0.00055270718,"MEAN_MOTION_DOT":0.00033594,"MEAN_MOTION_DDOT":0},{"OBJECT_NAME":"BRO-8","OBJECT_ID":"2023-001C","EPOCH":"2026-07-10T07:01:23.602656","CLASSIFICATION_TYPE":"U","MEAN_MOTION":15.50532589,"ECCENTRICITY":0.00054077,"INCLINATION":97.3195,"RA_OF_ASC_NODE":256.8307,"ARG_OF_PERICENTER":56.5575,"MEAN_ANOMALY":303.6194,"EPHEMERIS_TYPE":0,"NORAD_CAT_ID":55011,"ELEMENT_SET_NO":999,"REV_AT_EPOCH":19578,"BSTAR":0.00043563305,"MEAN_MOTION_DOT":0.00024837,"MEAN_MOTION_DDOT":0},{"OBJECT_NAME":"BRO-11","OBJECT_ID":"2023-174J","EPOCH":"2026-07-10T07:21:47.047392","CLASSIFICATION_TYPE":"U","MEAN_MOTION":15.27564282,"ECCENTRICITY":0.00118055,"INCLINATION":97.39,"RA_OF_ASC_NODE":267.9405,"ARG_OF_PERICENTER":122.4513,"MEAN_ANOMALY":237.7869,"EPHEMERIS_TYPE":0,"NORAD_CAT_ID":58264,"ELEMENT_SET_NO":999,"REV_AT_EPOCH":14828,"BSTAR":0.00010961247,"MEAN_MOTION_DOT":0.00002885,"MEAN_MOTION_DDOT":0},{"OBJECT_NAME":"BRO-13","OBJECT_ID":"2024-043K","EPOCH":"2026-07-10T07:00:58.627008","CLASSIFICATION_TYPE":"U","MEAN_MOTION":14.96642916,"ECCENTRICITY":0.00076771,"INCLINATION":97.8517,"RA_OF_ASC_NODE":322.3879,"ARG_OF_PERICENTER":282.2522,"MEAN_ANOMALY":77.784,"EPHEMERIS_TYPE":0,"NORAD_CAT_ID":59107,"ELEMENT_SET_NO":999,"REV_AT_EPOCH":12807,"BSTAR":0.000065551887,"MEAN_MOTION_DOT":0.00000688,"MEAN_MOTION_DDOT":0},{"OBJECT_NAME":"BRO-12","OBJECT_ID":"2024-043L","EPOCH":"2026-07-10T08:26:12.546240","CLASSIFICATION_TYPE":"U","MEAN_MOTION":14.96888033,"ECCENTRICITY":0.00070886,"INCLINATION":97.8505,"RA_OF_ASC_NODE":322.6156,"ARG_OF_PERICENTER":276.9604,"MEAN_ANOMALY":83.0811,"EPHEMERIS_TYPE":0,"NORAD_CAT_ID":59108,"ELEMENT_SET_NO":999,"REV_AT_EPOCH":12810,"BSTAR":0.000040541185,"MEAN_MOTION_DOT":0.00000405,"MEAN_MOTION_DDOT":0},{"OBJECT_NAME":"BRO-14","OBJECT_ID":"2024-149CM","EPOCH":"2026-07-08T11:05:46.550112","CLASSIFICATION_TYPE":"U","MEAN_MOTION":14.96225728,"ECCENTRICITY":0.00073282,"INCLINATION":97.6862,"RA_OF_ASC_NODE":264.8578,"ARG_OF_PERICENTER":36.5112,"MEAN_ANOMALY":323.6608,"EPHEMERIS_TYPE":0,"NORAD_CAT_ID":60551,"ELEMENT_SET_NO":999,"REV_AT_EPOCH":10317,"BSTAR":0.000049245054,"MEAN_MOTION_DOT":0.00000498,"MEAN_MOTION_DDOT":0},{"OBJECT_NAME":"BRO-15","OBJECT_ID":"2024-149CP","EPOCH":"2026-07-09T10:45:19.005696","CLASSIFICATION_TYPE":"U","MEAN_MOTION":14.96220766,"ECCENTRICITY":0.00085255,"INCLINATION":97.6798,"RA_OF_ASC_NODE":265.407,"ARG_OF_PERICENTER":23.7668,"MEAN_ANOMALY":336.3946,"EPHEMERIS_TYPE":0,"NORAD_CAT_ID":60553,"ELEMENT_SET_NO":999,"REV_AT_EPOCH":10333,"BSTAR":0.000069493641,"MEAN_MOTION_DOT":0.00000727,"MEAN_MOTION_DDOT":0},{"OBJECT_NAME":"BRO-16","OBJECT_ID":"2025-009AX","EPOCH":"2026-07-09T11:14:16.147680","CLASSIFICATION_TYPE":"U","MEAN_MOTION":15.24102662,"ECCENTRICITY":0.00015843,"INCLINATION":97.4053,"RA_OF_ASC_NODE":270.6796,"ARG_OF_PERICENTER":166.1451,"MEAN_ANOMALY":193.983,"EPHEMERIS_TYPE":0,"NORAD_CAT_ID":62654,"ELEMENT_SET_NO":999,"REV_AT_EPOCH":8219,"BSTAR":0.000099643045,"MEAN_MOTION_DOT":0.00002349,"MEAN_MOTION_DDOT":0},{"OBJECT_NAME":"BRO-18","OBJECT_ID":"2025-135Y","EPOCH":"2026-07-10T06:16:09.804576","CLASSIFICATION_TYPE":"U","MEAN_MOTION":15.22151441,"ECCENTRICITY":0.00023054,"INCLINATION":97.4644,"RA_OF_ASC_NODE":306.1156,"ARG_OF_PERICENTER":122.3627,"MEAN_ANOMALY":237.7833,"EPHEMERIS_TYPE":0,"NORAD_CAT_ID":64550,"ELEMENT_SET_NO":999,"REV_AT_EPOCH":5838,"BSTAR":0.00017276958,"MEAN_MOTION_DOT":0.00003892,"MEAN_MOTION_DDOT":0},{"OBJECT_NAME":"BRO-17","OBJECT_ID":"2025-276G","EPOCH":"2026-07-09T23:44:17.202336","CLASSIFICATION_TYPE":"U","MEAN_MOTION":15.18135853,"ECCENTRICITY":0.00051003,"INCLINATION":97.4185,"RA_OF_ASC_NODE":263.658,"ARG_OF_PERICENTER":283.2606,"MEAN_ANOMALY":76.8059,"EPHEMERIS_TYPE":0,"NORAD_CAT_ID":66672,"ELEMENT_SET_NO":999,"REV_AT_EPOCH":3385,"BSTAR":0.00009067806,"MEAN_MOTION_DOT":0.00001784,"MEAN_MOTION_DDOT":0},{"OBJECT_NAME":"BRO-20","OBJECT_ID":"2025-276J","EPOCH":"2026-07-10T03:55:17.872320","CLASSIFICATION_TYPE":"U","MEAN_MOTION":15.18309519,"ECCENTRICITY":0.00046731,"INCLINATION":97.4164,"RA_OF_ASC_NODE":263.8173,"ARG_OF_PERICENTER":286.9485,"MEAN_ANOMALY":73.1237,"EPHEMERIS_TYPE":0,"NORAD_CAT_ID":66674,"ELEMENT_SET_NO":999,"REV_AT_EPOCH":3388,"BSTAR":0.00011291911,"MEAN_MOTION_DOT":0.00002249,"MEAN_MOTION_DDOT":0},{"OBJECT_NAME":"BRO-19","OBJECT_ID":"2026-067G","EPOCH":"2026-07-10T07:19:01.705440","CLASSIFICATION_TYPE":"U","MEAN_MOTION":15.18969133,"ECCENTRICITY":0.00023559,"INCLINATION":97.4483,"RA_OF_ASC_NODE":149.4327,"ARG_OF_PERICENTER":112.9741,"MEAN_ANOMALY":247.1742,"EPHEMERIS_TYPE":0,"NORAD_CAT_ID":68422,"ELEMENT_SET_NO":999,"REV_AT_EPOCH":1545,"BSTAR":0.00012865236,"MEAN_MOTION_DOT":0.00002622,"MEAN_MOTION_DDOT":0},{"OBJECT_NAME":"BRO-21","OBJECT_ID":"2026-100AD","EPOCH":"2026-07-08T16:42:47.564640","CLASSIFICATION_TYPE":"U","MEAN_MOTION":15.21599743,"ECCENTRICITY":0.00075385,"INCLINATION":97.402,"RA_OF_ASC_NODE":87.2384,"ARG_OF_PERICENTER":353.3605,"MEAN_ANOMALY":6.753,"EPHEMERIS_TYPE":0,"NORAD_CAT_ID":69007,"ELEMENT_SET_NO":999,"REV_AT_EPOCH":1007,"BSTAR":0.000074555828,"MEAN_MOTION_DOT":0.00001614,"MEAN_MOTION_DDOT":0},{"OBJECT_NAME":"BRO-22","OBJECT_ID":"2026-132C","EPOCH":"2026-07-09T13:40:53.743872","CLASSIFICATION_TYPE":"U","MEAN_MOTION":14.9979631,"ECCENTRICITY":0.00159513,"INCLINATION":97.6833,"RA_OF_ASC_NODE":253.9635,"ARG_OF_PERICENTER":201.2436,"MEAN_ANOMALY":158.8127,"EPHEMERIS_TYPE":0,"NORAD_CAT_ID":69504,"ELEMENT_SET_NO":999,"REV_AT_EPOCH":413,"BSTAR":0.000066480091,"MEAN_MOTION_DOT":0.00000764,"MEAN_MOTION_DDOT":0}]}
